{"type":"FeatureCollection","features":[{"type":"Feature","geometry":{"type":"Polygon","coordinates":[[[-8.286211565460619,41.852270454545454],[-8.287425044455231,41.8591361139466],[-8.290982784850952,41.865533890005594],[-8.296642332519259,41.87102778485684],[-8.304017998639399,41.875243398645324],[-8.312607143754152,41.87789344425798],[-8.321824431818179,41.878797325465726],[-8.331041719882206,41.87789344425798],[-8.339630864996959,41.875243398645324],[-8.3470065311171,41.87102778485684],[-8.352666078785406,41.865533890005594],[-8.356223819181126,41.8591361139466],[-8.35743729817574,41.852270454545454],[-8.356223819181126,41.84540479514431],[-8.352666078785406,41.839007019085315],[-8.3470065311171,41.83351312423407],[-8.339630864996959,41.829297510445585],[-8.331041719882206,41.82664746483293],[-8.321824431818179,41.82574358362518],[-8.312607143754152,41.82664746483293],[-8.304017998639399,41.829297510445585],[-8.296642332519259,41.83351312423407],[-8.290982784850952,41.839007019085315],[-8.287425044455231,41.84540479514431],[-8.286211565460619,41.852270454545454]]]},"properties":{"id":"f-0","detections":88,"firstDate":"2022-07-10","lastDate":"2024-09-05","source":"FIRMS / VIIRS_SNPP archive"}},{"type":"Feature","geometry":{"type":"Polygon","coordinates":[[[-8.143926282628714,42.29118350000001],[-8.145006083563274,42.297250731371676],[-8.148171899717719,42.30290449095194],[-8.153207985952879,42.30775948436868],[-8.159771141314359,42.3114848518438],[-8.167414097610397,42.31382671574035],[-8.175616000000002,42.31462548190387],[-8.183817902389606,42.31382671574035],[-8.191460858685645,42.3114848518438],[-8.198024014047125,42.30775948436868],[-8.203060100282284,42.30290449095194],[-8.206225916436729,42.297250731371676],[-8.20730571737129,42.29118350000001],[-8.206225916436729,42.28511626862834],[-8.203060100282284,42.27946250904808],[-8.198024014047125,42.27460751563134],[-8.191460858685645,42.27088214815622],[-8.183817902389606,42.26854028425967],[-8.175616000000002,42.26774151809615],[-8.167414097610397,42.26854028425967],[-8.159771141314359,42.27088214815622],[-8.153207985952879,42.27460751563134],[-8.148171899717719,42.27946250904808],[-8.145006083563274,42.28511626862834],[-8.143926282628714,42.29118350000001]]]},"properties":{"id":"f-1","detections":40,"firstDate":"2022-07-12","lastDate":"2023-08-28","source":"FIRMS / VIIRS_SNPP archive"}},{"type":"Feature","geometry":{"type":"Polygon","coordinates":[[[-8.226967491047803,41.8419642857143],[-8.228048409328387,41.848080924240485],[-8.231217501375617,41.85378072395933],[-8.23625879880365,41.85867525293937],[-8.2428287455239,41.8624309571192],[-8.250479610524733,41.86479189146556],[-8.258689999999996,41.86559716220437],[-8.266900389475259,41.86479189146556],[-8.274551254476092,41.8624309571192],[-8.281121201196342,41.85867525293937],[-8.286162498624375,41.85378072395933],[-8.289331590671605,41.848080924240485],[-8.290412508952189,41.8419642857143],[-8.289331590671605,41.83584764718811],[-8.286162498624375,41.83014784746926],[-8.281121201196342,41.825253318489224],[-8.274551254476092,41.82149761430939],[-8.266900389475259,41.81913667996304],[-8.258689999999996,41.81833140922423],[-8.250479610524733,41.81913667996304],[-8.2428287455239,41.82149761430939],[-8.23625879880365,41.825253318489224],[-8.231217501375617,41.83014784746926],[-8.228048409328387,41.83584764718811],[-8.226967491047803,41.8419642857143]]]},"properties":{"id":"f-2","detections":42,"firstDate":"2022-07-13","lastDate":"2024-09-04","source":"FIRMS / VIIRS_SNPP archive"}},{"type":"Feature","geometry":{"type":"Polygon","coordinates":[[[-8.442202945742151,41.960044874999994],[-8.443401387391617,41.96681401894846],[-8.446915040522121,41.973121856923385],[-8.452504455479406,41.97853852019096],[-8.459788722871078,41.98269487210096],[-8.468271431912214,41.98530766413943],[-8.477374500000003,41.98619883884677],[-8.486477568087793,41.98530766413943],[-8.494960277128929,41.98269487210096],[-8.5022445445206,41.97853852019096],[-8.507833959477885,41.973121856923385],[-8.51134761260839,41.96681401894846],[-8.512546054257855,41.960044874999994],[-8.51134761260839,41.95327573105153],[-8.507833959477885,41.946967893076604],[-8.5022445445206,41.94155122980903],[-8.494960277128929,41.93739487789903],[-8.486477568087793,41.93478208586056],[-8.477374500000003,41.93389091115322],[-8.468271431912214,41.93478208586056],[-8.459788722871078,41.93739487789903],[-8.452504455479406,41.94155122980903],[-8.446915040522121,41.946967893076604],[-8.443401387391617,41.95327573105153],[-8.442202945742151,41.960044874999994]]]},"properties":{"id":"f-3","detections":80,"firstDate":"2022-07-13","lastDate":"2024-09-17","source":"FIRMS / VIIRS_SNPP archive"}},{"type":"Feature","geometry":{"type":"Polygon","coordinates":[[[-8.274585984283158,41.825004545454526],[-8.275550931344016,41.83046637970207],[-8.278380012979044,41.83555599897174],[-8.282880431950092,41.83992655412133],[-8.288745492141578,41.843280199040045],[-8.295575499393923,41.84538838836886],[-8.302904999999999,41.84610745248896],[-8.310234500606075,41.84538838836886],[-8.31706450785842,41.843280199040045],[-8.322929568049906,41.83992655412133],[-8.327429987020954,41.83555599897174],[-8.330259068655982,41.83046637970207],[-8.33122401571684,41.825004545454526],[-8.330259068655982,41.819542711206985],[-8.327429987020954,41.81445309193731],[-8.322929568049906,41.810082536787725],[-8.31706450785842,41.80672889186901],[-8.310234500606075,41.80462070254019],[-8.302904999999999,41.80390163842009],[-8.295575499393923,41.80462070254019],[-8.288745492141578,41.80672889186901],[-8.282880431950092,41.810082536787725],[-8.278380012979044,41.81445309193731],[-8.275550931344016,41.819542711206985],[-8.274585984283158,41.825004545454526]]]},"properties":{"id":"f-4","detections":22,"firstDate":"2022-07-15","lastDate":"2024-09-04","source":"FIRMS / VIIRS_SNPP archive"}},{"type":"Feature","geometry":{"type":"Polygon","coordinates":[[[-7.278773969872979,42.14791097560976],[-7.280105039850452,42.155407037005304],[-7.284007539563599,42.16239225420457],[-7.290215520106156,42.168390596199046],[-7.298305917863322,42.17299328589453],[-7.30772738559796,42.17588665759459],[-7.317837865853665,42.176873532799384],[-7.327948346109371,42.17588665759459],[-7.337369813844008,42.17299328589453],[-7.345460211601174,42.168390596199046],[-7.351668192143731,42.16239225420457],[-7.355570691856879,42.155407037005304],[-7.356901761834351,42.14791097560976],[-7.355570691856879,42.14041491421422],[-7.351668192143731,42.133429697014954],[-7.345460211601174,42.12743135502048],[-7.337369813844008,42.122828665324995],[-7.327948346109371,42.119935293624934],[-7.317837865853665,42.11894841842014],[-7.30772738559796,42.119935293624934],[-7.298305917863322,42.122828665324995],[-7.290215520106156,42.12743135502048],[-7.284007539563599,42.133429697014954],[-7.280105039850452,42.14041491421422],[-7.278773969872979,42.14791097560976]]]},"properties":{"id":"f-5","detections":164,"firstDate":"2022-07-15","lastDate":"2022-07-20","source":"FIRMS / VIIRS_SNPP archive"}},{"type":"Feature","geometry":{"type":"Polygon","coordinates":[[[-7.253871950659631,42.493476],[-7.254579264038755,42.497437493641264],[-7.25665300193823,42.50112901803755],[-7.2599518425472205,42.50429900190179],[-7.264250975329816,42.50673141607228],[-7.269257421491535,42.50826049554305],[-7.27463,42.508782036075104],[-7.280002578508466,42.50826049554305],[-7.285009024670185,42.50673141607228],[-7.28930815745278,42.50429900190179],[-7.29260699806177,42.50112901803755],[-7.294680735961245,42.497437493641264],[-7.295388049340369,42.493476],[-7.294680735961245,42.48951450635874],[-7.29260699806177,42.48582298196245],[-7.28930815745278,42.48265299809821],[-7.285009024670185,42.480220583927725],[-7.280002578508466,42.478691504456954],[-7.27463,42.4781699639249],[-7.269257421491535,42.478691504456954],[-7.264250975329816,42.480220583927725],[-7.2599518425472205,42.48265299809821],[-7.25665300193823,42.48582298196245],[-7.254579264038755,42.48951450635874],[-7.253871950659631,42.493476]]]},"properties":{"id":"f-6","detections":5,"firstDate":"2022-07-15","lastDate":"2022-07-17","source":"FIRMS / VIIRS_SNPP archive"}},{"type":"Feature","geometry":{"type":"Polygon","coordinates":[[[-7.478270688236137,41.80670222222222],[-7.479075496768112,41.811258935557284],[-7.48143507599259,41.815505116408886],[-7.485188624484813,41.81915139456913],[-7.490080344118068,41.82194928220717],[-7.495776872283298,41.823708107904196],[-7.5018899999999995,41.82430801059555],[-7.508003127716701,41.823708107904196],[-7.513699655881931,41.82194928220717],[-7.518591375515186,41.81915139456913],[-7.522344924007409,41.815505116408886],[-7.524704503231887,41.811258935557284],[-7.525509311763862,41.80670222222222],[-7.524704503231887,41.80214550888716],[-7.522344924007409,41.797899328035555],[-7.518591375515186,41.79425304987531],[-7.513699655881931,41.79145516223727],[-7.508003127716701,41.789696336540246],[-7.5018899999999995,41.78909643384889],[-7.495776872283298,41.789696336540246],[-7.490080344118068,41.79145516223727],[-7.485188624484813,41.79425304987531],[-7.48143507599259,41.797899328035555],[-7.479075496768112,41.80214550888716],[-7.478270688236137,41.80670222222222]]]},"properties":{"id":"f-7","detections":9,"firstDate":"2022-07-16","lastDate":"2022-08-29","source":"FIRMS / VIIRS_SNPP archive"}},{"type":"Feature","geometry":{"type":"Polygon","coordinates":[[[-7.578409744268441,41.833355555555556],[-7.579214887846879,41.83791226889062],[-7.581575449377884,41.84215844974222],[-7.585330560494133,41.84580472790247],[-7.590224316578665,41.84860261554051],[-7.595923216241634,41.85036144123753],[-7.602038888888888,41.85096134392889],[-7.608154561536142,41.85036144123753],[-7.6138534611991115,41.84860261554051],[-7.6187472172836435,41.84580472790247],[-7.622502328399892,41.84215844974222],[-7.624862889930897,41.83791226889062],[-7.625668033509335,41.833355555555556],[-7.624862889930897,41.82879884222049],[-7.622502328399892,41.82455266136889],[-7.6187472172836435,41.820906383208644],[-7.6138534611991115,41.818108495570605],[-7.608154561536142,41.81634966987358],[-7.602038888888888,41.815749767182226],[-7.595923216241634,41.81634966987358],[-7.590224316578665,41.818108495570605],[-7.585330560494133,41.820906383208644],[-7.581575449377884,41.82455266136889],[-7.579214887846879,41.82879884222049],[-7.578409744268441,41.833355555555556]]]},"properties":{"id":"f-8","detections":9,"firstDate":"2022-07-16","lastDate":"2022-07-19","source":"FIRMS / VIIRS_SNPP archive"}},{"type":"Feature","geometry":{"type":"Polygon","coordinates":[[[-7.464298427512579,41.84796937499999],[-7.465330779482721,41.85381064099303],[-7.46835748231242,41.859253834361795],[-7.473172271205697,41.8639280104735],[-7.479447026256289,41.86751463195058],[-7.486754133277023,41.869769276466535],[-7.494595624999999,41.87053829372359],[-7.502437116722975,41.869769276466535],[-7.509744223743708,41.86751463195058],[-7.516018978794301,41.8639280104735],[-7.520833767687577,41.859253834361795],[-7.523860470517277,41.85381064099303],[-7.524892822487418,41.84796937499999],[-7.523860470517277,41.84212810900695],[-7.520833767687577,41.83668491563819],[-7.516018978794301,41.83201073952648],[-7.509744223743708,41.828424118049405],[-7.502437116722975,41.82616947353345],[-7.494595624999999,41.82540045627639],[-7.486754133277023,41.82616947353345],[-7.479447026256289,41.828424118049405],[-7.473172271205697,41.83201073952648],[-7.46835748231242,41.83668491563819],[-7.465330779482721,41.84212810900695],[-7.464298427512579,41.84796937499999]]]},"properties":{"id":"f-9","detections":32,"firstDate":"2022-07-17","lastDate":"2022-08-30","source":"FIRMS / VIIRS_SNPP archive"}},{"type":"Feature","geometry":{"type":"Polygon","coordinates":[[[-7.325961188601391,42.16131090163937],[-7.327239331801908,42.16850737645214],[-7.330986658056579,42.175213423399164],[-7.336947793273895,42.18097203646326],[-7.344716495940039,42.185390775680666],[-7.353763341806701,42.18816851127603],[-7.363471803278688,42.18911594515896],[-7.373180264750674,42.18816851127603],[-7.382227110617336,42.185390775680666],[-7.38999581328348,42.18097203646326],[-7.395956948500796,42.175213423399164],[-7.399704274755467,42.16850737645214],[-7.400982417955984,42.16131090163937],[-7.399704274755467,42.154114426826595],[-7.395956948500796,42.14740837987957],[-7.38999581328348,42.141649766815476],[-7.382227110617336,42.13723102759807],[-7.373180264750674,42.1344532920027],[-7.363471803278688,42.133505858119776],[-7.353763341806701,42.1344532920027],[-7.344716495940039,42.13723102759807],[-7.336947793273895,42.141649766815476],[-7.330986658056579,42.14740837987957],[-7.327239331801908,42.154114426826595],[-7.325961188601391,42.16131090163937]]]},"properties":{"id":"f-10","detections":122,"firstDate":"2022-07-18","lastDate":"2022-07-24","source":"FIRMS / VIIRS_SNPP archive"}},{"type":"Feature","geometry":{"type":"Polygon","coordinates":[[[-7.277552236012651,42.199035185185174],[-7.278849363615542,42.20633419416548],[-7.282652349321685,42.21313578774596],[-7.288702025939935,42.21897644856428],[-7.296586118006323,42.22345814523779],[-7.3057673376756025,42.22627545754458],[-7.315619999999996,42.22723639030675],[-7.325472662324389,42.22627545754458],[-7.334653881993668,42.22345814523779],[-7.342537974060056,42.21897644856428],[-7.348587650678306,42.21313578774596],[-7.352390636384449,42.20633419416548],[-7.35368776398734,42.199035185185174],[-7.352390636384449,42.19173617620487],[-7.348587650678306,42.184934582624386],[-7.342537974060056,42.17909392180607],[-7.334653881993668,42.174612225132556],[-7.325472662324389,42.17179491282577],[-7.315619999999996,42.1708339800636],[-7.3057673376756025,42.17179491282577],[-7.296586118006323,42.174612225132556],[-7.288702025939935,42.17909392180607],[-7.282652349321685,42.184934582624386],[-7.278849363615542,42.19173617620487],[-7.277552236012651,42.199035185185174]]]},"properties":{"id":"f-11","detections":135,"firstDate":"2022-07-18","lastDate":"2022-07-22","source":"FIRMS / VIIRS_SNPP archive"}},{"type":"Feature","geometry":{"type":"Polygon","coordinates":[[[-7.326676025052976,42.183749],[-7.327504571807272,42.18841240621806],[-7.3299337479780915,42.192758009009005],[-7.3337980092237975,42.19648966272408],[-7.338834012526489,42.19935306132945],[-7.344698562583475,42.20115306894215],[-7.350992000000001,42.20176701801802],[-7.357285437416526,42.20115306894215],[-7.363149987473513,42.19935306132945],[-7.368185990776204,42.19648966272408],[-7.37205025202191,42.192758009009005],[-7.374479428192729,42.18841240621806],[-7.375307974947026,42.183749],[-7.374479428192729,42.179085593781934],[-7.37205025202191,42.17473999099099],[-7.368185990776204,42.171008337275914],[-7.363149987473513,42.16814493867055],[-7.357285437416526,42.16634493105785],[-7.350992000000001,42.16573098198198],[-7.344698562583475,42.16634493105785],[-7.338834012526489,42.16814493867055],[-7.3337980092237975,42.171008337275914],[-7.3299337479780915,42.17473999099099],[-7.327504571807272,42.179085593781934],[-7.326676025052976,42.183749]]]},"properties":{"id":"f-12","detections":10,"firstDate":"2022-07-18","lastDate":"2022-07-22","source":"FIRMS / VIIRS_SNPP archive"}},{"type":"Feature","geometry":{"type":"Polygon","coordinates":[[[-6.982131530793416,42.38721475409836],[-6.983289151477689,42.39370931633433],[-6.9866831235939335,42.399761284886694],[-6.992082153551232,42.40495822809996],[-6.999118306380313,42.408945982882486],[-7.007312079893668,42.41145279033593],[-7.016105081967211,42.412307815675035],[-7.024898084040754,42.41145279033593],[-7.033091857554109,42.408945982882486],[-7.0401280103831905,42.40495822809996],[-7.045527040340489,42.399761284886694],[-7.048921012456733,42.39370931633433],[-7.050078633141006,42.38721475409836],[-7.048921012456733,42.38072019186239],[-7.045527040340489,42.374668223310024],[-7.0401280103831905,42.36947128009676],[-7.033091857554109,42.36548352531423],[-7.024898084040754,42.36297671786079],[-7.016105081967211,42.36212169252168],[-7.007312079893668,42.36297671786079],[-6.999118306380313,42.36548352531423],[-6.992082153551232,42.36947128009676],[-6.9866831235939335,42.374668223310024],[-6.983289151477689,42.38072019186239],[-6.982131530793416,42.38721475409836]]]},"properties":{"id":"f-13","detections":61,"firstDate":"2022-07-18","lastDate":"2024-08-22","source":"FIRMS / VIIRS_SNPP archive"}},{"type":"Feature","geometry":{"type":"Polygon","coordinates":[[[-7.40249318468449,41.83545916666667],[-7.403473858666549,41.841009112619126],[-7.406349049301491,41.846180838926635],[-7.410922817099021,41.85062190098803],[-7.416883467342245,41.85402964776303],[-7.423824791567529,41.856171846940484],[-7.43127375,41.8569025111866],[-7.438722708432471,41.856171846940484],[-7.445664032657755,41.85402964776303],[-7.451624682900979,41.85062190098803],[-7.456198450698508,41.846180838926635],[-7.45907364133345,41.841009112619126],[-7.46005431531551,41.83545916666667],[-7.45907364133345,41.82990922071422],[-7.456198450698508,41.82473749440671],[-7.451624682900979,41.820296432345316],[-7.445664032657755,41.81688868557032],[-7.438722708432471,41.81474648639286],[-7.43127375,41.81401582214675],[-7.423824791567529,41.81474648639286],[-7.416883467342245,41.81688868557032],[-7.410922817099021,41.820296432345316],[-7.406349049301491,41.82473749440671],[-7.403473858666549,41.82990922071422],[-7.40249318468449,41.83545916666667]]]},"properties":{"id":"f-14","detections":24,"firstDate":"2022-07-18","lastDate":"2022-08-21","source":"FIRMS / VIIRS_SNPP archive"}},{"type":"Feature","geometry":{"type":"Polygon","coordinates":[[[-7.304924920378177,42.2252165625],[-7.3059634187205,42.23105782849304],[-7.309008141801638,42.236501021861805],[-7.3138515967752555,42.24117519797351],[-7.320163710189088,42.24476181945059],[-7.327514321945243,42.247016463966546],[-7.335402499999998,42.2477854812236],[-7.343290678054753,42.247016463966546],[-7.350641289810908,42.24476181945059],[-7.356953403224741,42.24117519797351],[-7.361796858198358,42.236501021861805],[-7.364841581279496,42.23105782849304],[-7.365880079621819,42.2252165625],[-7.364841581279496,42.21937529650696],[-7.361796858198358,42.2139321031382],[-7.356953403224741,42.20925792702649],[-7.350641289810908,42.205671305549416],[-7.343290678054753,42.20341666103346],[-7.335402499999998,42.2026476437764],[-7.327514321945243,42.20341666103346],[-7.320163710189088,42.205671305549416],[-7.3138515967752555,42.20925792702649],[-7.309008141801638,42.2139321031382],[-7.3059634187205,42.21937529650696],[-7.304924920378177,42.2252165625]]]},"properties":{"id":"f-15","detections":32,"firstDate":"2022-07-19","lastDate":"2022-07-23","source":"FIRMS / VIIRS_SNPP archive"}},{"type":"Feature","geometry":{"type":"Polygon","coordinates":[[[-7.38021976799626,41.87129697674419],[-7.381305394924478,41.877437443329605],[-7.384488292028061,41.883159447264816],[-7.389551550129383,41.888073043437714],[-7.396150116556269,41.891843378389204],[-7.4038343099113755,41.89421351002313],[-7.412080465116279,41.89502191778545],[-7.420326620321183,41.89421351002313],[-7.4280108136762895,41.891843378389204],[-7.434609380103176,41.888073043437714],[-7.439672638204498,41.883159447264816],[-7.44285553530808,41.877437443329605],[-7.443941162236299,41.87129697674419],[-7.44285553530808,41.865156510158776],[-7.439672638204498,41.859434506223565],[-7.434609380103176,41.85452091005067],[-7.4280108136762895,41.85075057509918],[-7.420326620321183,41.84838044346525],[-7.412080465116279,41.84757203570293],[-7.4038343099113755,41.84838044346525],[-7.396150116556269,41.85075057509918],[-7.389551550129383,41.85452091005067],[-7.384488292028061,41.859434506223565],[-7.381305394924478,41.865156510158776],[-7.38021976799626,41.87129697674419]]]},"properties":{"id":"f-16","detections":43,"firstDate":"2022-07-19","lastDate":"2022-07-20","source":"FIRMS / VIIRS_SNPP archive"}},{"type":"Feature","geometry":{"type":"Polygon","coordinates":[[[-7.454422752505914,41.88833555555556],[-7.455228588645199,41.89289226889062],[-7.457591180661868,41.89713844974222],[-7.461349521814355,41.90078472790247],[-7.466247487364068,41.90358261554051],[-7.471951289053067,41.90534144123753],[-7.478072222222222,41.90594134392889],[-7.484193155391377,41.90534144123753],[-7.489896957080376,41.90358261554051],[-7.494794922630089,41.90078472790247],[-7.498553263782576,41.89713844974222],[-7.500915855799245,41.89289226889062],[-7.50172169193853,41.88833555555556],[-7.500915855799245,41.883778842220494],[-7.498553263782576,41.87953266136889],[-7.494794922630089,41.875886383208645],[-7.489896957080376,41.873088495570606],[-7.484193155391377,41.87132966987358],[-7.478072222222222,41.870729767182226],[-7.471951289053067,41.87132966987358],[-7.466247487364068,41.873088495570606],[-7.461349521814355,41.875886383208645],[-7.457591180661868,41.87953266136889],[-7.455228588645199,41.883778842220494],[-7.454422752505914,41.88833555555556]]]},"properties":{"id":"f-17","detections":9,"firstDate":"2022-07-19","lastDate":"2024-09-06","source":"FIRMS / VIIRS_SNPP archive"}},{"type":"Feature","geometry":{"type":"Polygon","coordinates":[[[-7.227961585844543,42.16996745614032],[-7.229227704191598,42.17709525068619],[-7.232939775359771,42.183737297813],[-7.238844827833438,42.189440952985564],[-7.246540442045078,42.193817521529596],[-7.255502174603774,42.19656874753144],[-7.265119298245613,42.197507139485694],[-7.274736421887453,42.19656874753144],[-7.2836981544461485,42.193817521529596],[-7.291393768657789,42.189440952985564],[-7.297298821131456,42.183737297813],[-7.301010892299629,42.17709525068619],[-7.302277010646684,42.16996745614032],[-7.301010892299629,42.16283966159445],[-7.297298821131456,42.15619761446764],[-7.291393768657789,42.150493959295076],[-7.2836981544461485,42.146117390751044],[-7.274736421887453,42.1433661647492],[-7.265119298245613,42.142427772794946],[-7.255502174603775,42.1433661647492],[-7.246540442045078,42.146117390751044],[-7.238844827833438,42.150493959295076],[-7.232939775359771,42.15619761446764],[-7.229227704191598,42.16283966159445],[-7.227961585844543,42.16996745614032]]]},"properties":{"id":"f-18","detections":114,"firstDate":"2022-07-19","lastDate":"2022-07-24","source":"FIRMS / VIIRS_SNPP archive"}},{"type":"Feature","geometry":{"type":"Polygon","coordinates":[[[-7.338704480553809,41.85217],[-7.339528718441403,41.856833406218065],[-7.341945261654261,41.86117900900901],[-7.345789426765955,41.864910662724085],[-7.3507992402769045,41.86777406132945],[-7.356633291675448,41.86957406894215],[-7.362894,41.87018801801802],[-7.369154708324552,41.86957406894215],[-7.374988759723095,41.86777406132945],[-7.379998573234045,41.864910662724085],[-7.383842738345739,41.86117900900901],[-7.386259281558597,41.856833406218065],[-7.387083519446191,41.85217],[-7.386259281558597,41.84750659378194],[-7.383842738345739,41.843160990990995],[-7.379998573234045,41.83942933727592],[-7.374988759723095,41.83656593867055],[-7.369154708324552,41.83476593105785],[-7.362894,41.83415198198198],[-7.356633291675448,41.83476593105785],[-7.3507992402769045,41.83656593867055],[-7.345789426765955,41.83942933727592],[-7.341945261654261,41.843160990990995],[-7.339528718441403,41.84750659378194],[-7.338704480553809,41.85217]]]},"properties":{"id":"f-19","detections":10,"firstDate":"2022-07-20","lastDate":"2022-07-21","source":"FIRMS / VIIRS_SNPP archive"}},{"type":"Feature","geometry":{"type":"Polygon","coordinates":[[[-7.255479603154814,42.191359999999996],[-7.2563253996215344,42.196119921670736],[-7.258805149390233,42.20055546254575],[-7.2627498616121535,42.2043643478445],[-7.267890710668317,42.20728700832834],[-7.2738773561912,42.209124269515236],[-7.280301818181818,42.20975092509151],[-7.286726280172436,42.209124269515236],[-7.292712925695319,42.20728700832834],[-7.2978537747514824,42.2043643478445],[-7.301798486973403,42.20055546254575],[-7.3042782367421015,42.196119921670736],[-7.305124033208822,42.191359999999996],[-7.3042782367421015,42.186600078329256],[-7.301798486973403,42.18216453745424],[-7.2978537747514824,42.17835565215549],[-7.292712925695319,42.17543299167165],[-7.286726280172436,42.173595730484756],[-7.280301818181818,42.17296907490848],[-7.2738773561912,42.173595730484756],[-7.267890710668317,42.17543299167165],[-7.2627498616121535,42.17835565215549],[-7.258805149390233,42.18216453745424],[-7.2563253996215344,42.186600078329256],[-7.255479603154814,42.191359999999996]]]},"properties":{"id":"f-20","detections":11,"firstDate":"2022-07-20","lastDate":"2022-07-20","source":"FIRMS / VIIRS_SNPP archive"}},{"type":"Feature","geometry":{"type":"Polygon","coordinates":[[[-7.2275282009586705,42.1406944736842],[-7.228596209631832,42.14670976311706],[-7.23172745262521,42.15231512051581],[-7.23670854090343,42.15712855003701],[-7.243200021531966,42.160822024413356],[-7.2507595108336655,42.16314383946987],[-7.258871842105263,42.16393576734741],[-7.26698417337686,42.16314383946987],[-7.27454366267856,42.160822024413356],[-7.281035143307096,42.15712855003701],[-7.286016231585315,42.15231512051581],[-7.2891474745786935,42.14670976311706],[-7.290215483251855,42.1406944736842],[-7.2891474745786935,42.13467918425134],[-7.286016231585315,42.12907382685259],[-7.281035143307096,42.12426039733139],[-7.27454366267856,42.12056692295504],[-7.26698417337686,42.11824510789853],[-7.258871842105263,42.11745318002099],[-7.2507595108336655,42.11824510789853],[-7.243200021531966,42.12056692295504],[-7.23670854090343,42.12426039733139],[-7.23172745262521,42.12907382685259],[-7.228596209631832,42.13467918425134],[-7.2275282009586705,42.1406944736842]]]},"properties":{"id":"f-21","detections":38,"firstDate":"2022-07-22","lastDate":"2022-07-23","source":"FIRMS / VIIRS_SNPP archive"}},{"type":"Feature","geometry":{"type":"Polygon","coordinates":[[[-7.411934929674808,42.14026857142858],[-7.412896302430741,42.145683297377964],[-7.415714904733965,42.15072901870215],[-7.420198653495478,42.15506187783136],[-7.4260419886469275,42.15838659757631],[-7.43284669655431,42.160476603780744],[-7.440149047619048,42.16118946597573],[-7.4474513986837865,42.160476603780744],[-7.454256106591169,42.15838659757631],[-7.460099441742618,42.15506187783136],[-7.464583190504131,42.15072901870215],[-7.4674017928073555,42.145683297377964],[-7.4683631655632885,42.14026857142858],[-7.4674017928073555,42.13485384547919],[-7.464583190504131,42.129808124155005],[-7.460099441742618,42.1254752650258],[-7.454256106591169,42.122150545280846],[-7.4474513986837865,42.12006053907641],[-7.440149047619048,42.119347676881425],[-7.43284669655431,42.12006053907641],[-7.4260419886469275,42.122150545280846],[-7.420198653495478,42.1254752650258],[-7.415714904733965,42.129808124155005],[-7.412896302430741,42.13485384547919],[-7.411934929674808,42.14026857142858]]]},"properties":{"id":"f-22","detections":21,"firstDate":"2022-08-11","lastDate":"2022-08-13","source":"FIRMS / VIIRS_SNPP archive"}},{"type":"Feature","geometry":{"type":"Polygon","coordinates":[[[-8.112489356177814,42.49283],[-8.113104303370426,42.49627420822205],[-8.114907237313336,42.49948369934558],[-8.11777529103782,42.502239751854475],[-8.12151301142224,42.50435454532484],[-8.125865678999272,42.505683960076524],[-8.130536666666666,42.506137398691166],[-8.13520765433406,42.505683960076524],[-8.139560321911093,42.50435454532484],[-8.143298042295513,42.502239751854475],[-8.146166096019996,42.49948369934558],[-8.147969029962907,42.49627420822205],[-8.148583977155518,42.49283],[-8.147969029962907,42.48938579177795],[-8.146166096019996,42.486176300654414],[-8.143298042295513,42.48342024814552],[-8.139560321911093,42.48130545467516],[-8.13520765433406,42.47997603992347],[-8.130536666666666,42.47952260130883],[-8.125865678999272,42.47997603992347],[-8.12151301142224,42.48130545467516],[-8.11777529103782,42.48342024814552],[-8.114907237313336,42.486176300654414],[-8.113104303370426,42.48938579177795],[-8.112489356177814,42.49283]]]},"properties":{"id":"f-23","detections":3,"firstDate":"2022-08-11","lastDate":"2022-08-12","source":"FIRMS / VIIRS_SNPP archive"}},{"type":"Feature","geometry":{"type":"Polygon","coordinates":[[[-7.121666502382705,41.99735553191489],[-7.122770233298852,42.00358607079788],[-7.126006208609359,42.00939200875244],[-7.131153901944518,42.01437768070174],[-7.137862506510501,42.01820332134165],[-7.145674841992633,42.02060821958473],[-7.154058510638298,42.021428485589986],[-7.162442179283963,42.02060821958473],[-7.1702545147660945,42.01820332134165],[-7.176963119332078,42.01437768070174],[-7.182110812667236,42.00939200875244],[-7.1853467879777435,42.00358607079788],[-7.186450518893891,41.99735553191489],[-7.1853467879777435,41.9911249930319],[-7.182110812667236,41.98531905507734],[-7.176963119332078,41.98033338312804],[-7.1702545147660945,41.97650774248813],[-7.162442179283963,41.97410284424505],[-7.154058510638298,41.9732825782398],[-7.145674841992633,41.97410284424505],[-7.137862506510501,41.97650774248813],[-7.131153901944518,41.98033338312804],[-7.126006208609359,41.98531905507734],[-7.122770233298852,41.9911249930319],[-7.121666502382705,41.99735553191489]]]},"properties":{"id":"f-24","detections":47,"firstDate":"2022-08-11","lastDate":"2024-09-19","source":"FIRMS / VIIRS_SNPP archive"}},{"type":"Feature","geometry":{"type":"Polygon","coordinates":[[[-7.431051970497834,42.19256125],[-7.432038166115239,42.19811119595245],[-7.434929545365894,42.20328292225996],[-7.439529065532096,42.207723984321355],[-7.445523276915584,42.21113173109635],[-7.452503683916478,42.21327393027381],[-7.459994583333334,42.21400459451992],[-7.467485482750189,42.21327393027381],[-7.474465889751083,42.21113173109635],[-7.480460101134572,42.207723984321355],[-7.485059621300773,42.20328292225996],[-7.487951000551428,42.19811119595245],[-7.488937196168833,42.19256125],[-7.487951000551428,42.187011304047545],[-7.485059621300773,42.181839577740035],[-7.480460101134572,42.17739851567864],[-7.474465889751083,42.17399076890364],[-7.467485482750189,42.17184856972619],[-7.459994583333334,42.171117905480074],[-7.452503683916478,42.17184856972619],[-7.445523276915584,42.17399076890364],[-7.439529065532096,42.17739851567864],[-7.434929545365894,42.181839577740035],[-7.432038166115239,42.187011304047545],[-7.431051970497834,42.19256125]]]},"properties":{"id":"f-25","detections":24,"firstDate":"2022-08-11","lastDate":"2022-08-15","source":"FIRMS / VIIRS_SNPP archive"}},{"type":"Feature","geometry":{"type":"Polygon","coordinates":[[[-8.42539919188387,41.9485825],[-8.42606042876062,41.95231802826264],[-8.427999077190464,41.95579898644743],[-8.431083021486678,41.95878815300663],[-8.435102095941934,41.96108182117907],[-8.43978240727394,41.96252368126926],[-8.444805,41.963015472894845],[-8.449827592726061,41.96252368126926],[-8.454507904058067,41.96108182117907],[-8.458526978513323,41.95878815300663],[-8.461610922809538,41.95579898644743],[-8.463549571239382,41.95231802826264],[-8.464210808116132,41.9485825],[-8.463549571239382,41.94484697173736],[-8.461610922809538,41.941366013552575],[-8.458526978513323,41.93837684699337],[-8.454507904058067,41.93608317882093],[-8.449827592726061,41.93464131873074],[-8.444805,41.934149527105156],[-8.43978240727394,41.93464131873074],[-8.435102095941934,41.93608317882093],[-8.431083021486678,41.93837684699337],[-8.427999077190464,41.941366013552575],[-8.42606042876062,41.94484697173736],[-8.42539919188387,41.9485825]]]},"properties":{"id":"f-26","detections":4,"firstDate":"2022-08-11","lastDate":"2024-09-18","source":"FIRMS / VIIRS_SNPP archive"}},{"type":"Feature","geometry":{"type":"Polygon","coordinates":[[[-7.375775409354072,42.188793749999995],[-7.376563871785342,42.193231190839434],[-7.3788755266674535,42.197366227418875],[-7.382552838540383,42.20091706382892],[-7.387345204677036,42.20364171643624],[-7.392926033244958,42.20535450466835],[-7.398915,42.20593870483776],[-7.404903966755042,42.20535450466835],[-7.410484795322963,42.20364171643624],[-7.415277161459616,42.20091706382892],[-7.418954473332546,42.197366227418875],[-7.421266128214658,42.193231190839434],[-7.422054590645927,42.188793749999995],[-7.421266128214658,42.184356309160556],[-7.418954473332546,42.180221272581115],[-7.415277161459616,42.17667043617107],[-7.410484795322963,42.17394578356375],[-7.404903966755041,42.17223299533164],[-7.398915,42.17164879516223],[-7.392926033244958,42.17223299533164],[-7.387345204677036,42.17394578356375],[-7.382552838540383,42.17667043617107],[-7.3788755266674535,42.180221272581115],[-7.376563871785342,42.184356309160556],[-7.375775409354072,42.188793749999995]]]},"properties":{"id":"f-27","detections":8,"firstDate":"2022-08-11","lastDate":"2024-09-18","source":"FIRMS / VIIRS_SNPP archive"}},{"type":"Feature","geometry":{"type":"Polygon","coordinates":[[[-7.51786602150335,42.354176],[-7.518571765056542,42.358137493641266],[-7.520640900459264,42.361829018037554],[-7.523932419553229,42.36499900190179],[-7.5282220107516755,42.36743141607228],[-7.533217345503314,42.36896049554305],[-7.538578000000001,42.369482036075105],[-7.543938654496689,42.36896049554305],[-7.548933989248327,42.36743141607228],[-7.553223580446773,42.36499900190179],[-7.556515099540738,42.361829018037554],[-7.55858423494346,42.358137493641266],[-7.559289978496652,42.354176],[-7.55858423494346,42.35021450635874],[-7.556515099540738,42.34652298196245],[-7.553223580446773,42.34335299809821],[-7.548933989248327,42.340920583927726],[-7.543938654496689,42.339391504456955],[-7.538578000000001,42.3388699639249],[-7.533217345503314,42.339391504456955],[-7.5282220107516755,42.340920583927726],[-7.523932419553229,42.34335299809821],[-7.520640900459264,42.34652298196245],[-7.518571765056542,42.35021450635874],[-7.51786602150335,42.354176]]]},"properties":{"id":"f-28","detections":5,"firstDate":"2022-08-11","lastDate":"2022-08-11","source":"FIRMS / VIIRS_SNPP archive"}},{"type":"Feature","geometry":{"type":"Polygon","coordinates":[[[-8.161080868019708,42.07894666666667],[-8.161691788377292,42.082390874888716],[-8.163482916237264,42.08560036601225],[-8.166332189195947,42.088356418521144],[-8.170045434009854,42.090471211991506],[-8.174369599181343,42.09180062674319],[-8.17901,42.092254065357835],[-8.183650400818657,42.09180062674319],[-8.187974565990146,42.090471211991506],[-8.191687810804053,42.088356418521144],[-8.194537083762736,42.08560036601225],[-8.196328211622708,42.082390874888716],[-8.196939131980292,42.07894666666667],[-8.196328211622708,42.07550245844462],[-8.194537083762736,42.07229296732108],[-8.191687810804053,42.06953691481219],[-8.187974565990146,42.06742212134183],[-8.183650400818657,42.06609270659014],[-8.17901,42.0656392679755],[-8.174369599181343,42.06609270659014],[-8.170045434009854,42.06742212134183],[-8.166332189195947,42.06953691481219],[-8.163482916237264,42.07229296732108],[-8.161691788377292,42.07550245844462],[-8.161080868019708,42.07894666666667]]]},"properties":{"id":"f-29","detections":3,"firstDate":"2022-08-12","lastDate":"2022-08-12","source":"FIRMS / VIIRS_SNPP archive"}},{"type":"Feature","geometry":{"type":"Polygon","coordinates":[[[-7.1374412307586885,41.899883333333335],[-7.138050435047555,41.903327541555385],[-7.1398365316486245,41.90653703267892],[-7.1426778010301994,41.90929308518781],[-7.1463806153793445,41.911407878658174],[-7.150692634017355,41.91273729340986],[-7.15532,41.9131907320245],[-7.159947365982644,41.91273729340986],[-7.164259384620655,41.911407878658174],[-7.1679621989698,41.90929308518781],[-7.170803468351375,41.90653703267892],[-7.172589564952444,41.903327541555385],[-7.173198769241311,41.899883333333335],[-7.172589564952444,41.896439125111286],[-7.170803468351375,41.89322963398775],[-7.1679621989698,41.89047358147886],[-7.164259384620655,41.888358788008496],[-7.159947365982644,41.88702937325681],[-7.15532,41.88657593464217],[-7.150692634017355,41.88702937325681],[-7.1463806153793445,41.888358788008496],[-7.1426778010301994,41.89047358147886],[-7.1398365316486245,41.89322963398775],[-7.138050435047555,41.896439125111286],[-7.1374412307586885,41.899883333333335]]]},"properties":{"id":"f-30","detections":3,"firstDate":"2022-08-13","lastDate":"2024-09-18","source":"FIRMS / VIIRS_SNPP archive"}},{"type":"Feature","geometry":{"type":"Polygon","coordinates":[[[-7.264702297637467,42.066262727272736],[-7.265795380793059,42.07242647409708],[-7.269000138449186,42.078170171761414],[-7.274098171667696,42.08310239676183],[-7.280742057909643,42.08688702611543],[-7.288479027307184,42.089266143586165],[-7.296781818181819,42.09007761625009],[-7.305084609056455,42.089266143586165],[-7.312821578453995,42.08688702611543],[-7.319465464695943,42.08310239676183],[-7.324563497914453,42.078170171761414],[-7.32776825557058,42.07242647409708],[-7.328861338726171,42.066262727272736],[-7.32776825557058,42.060098980448394],[-7.324563497914453,42.05435528278406],[-7.319465464695943,42.04942305778364],[-7.312821578453995,42.045638428430046],[-7.305084609056455,42.04325931095931],[-7.296781818181819,42.04244783829538],[-7.288479027307184,42.04325931095931],[-7.280742057909643,42.045638428430046],[-7.274098171667696,42.04942305778364],[-7.2690001384491865,42.05435528278406],[-7.265795380793059,42.060098980448394],[-7.264702297637467,42.066262727272736]]]},"properties":{"id":"f-31","detections":44,"firstDate":"2022-08-15","lastDate":"2022-08-15","source":"FIRMS / VIIRS_SNPP archive"}},{"type":"Feature","geometry":{"type":"Polygon","coordinates":[[[-8.439908697848237,42.03939666666667],[-8.440519237830303,42.04284087488872],[-8.442309250485689,42.04605036601225],[-8.445156749410065,42.048806418521146],[-8.448867682257452,42.05092121199151],[-8.453189155086905,42.052250626743195],[-8.457826666666667,42.05270406535784],[-8.46246417824643,42.052250626743195],[-8.466785651075883,42.05092121199151],[-8.47049658392327,42.048806418521146],[-8.473344082847646,42.04605036601225],[-8.475134095503032,42.04284087488872],[-8.475744635485098,42.03939666666667],[-8.475134095503032,42.03595245844462],[-8.473344082847646,42.032742967321084],[-8.47049658392327,42.02998691481219],[-8.466785651075883,42.02787212134183],[-8.46246417824643,42.02654270659014],[-8.457826666666667,42.0260892679755],[-8.453189155086905,42.02654270659014],[-8.448867682257452,42.02787212134183],[-8.445156749410065,42.02998691481219],[-8.442309250485689,42.032742967321084],[-8.440519237830303,42.03595245844462],[-8.439908697848237,42.03939666666667]]]},"properties":{"id":"f-32","detections":3,"firstDate":"2022-08-21","lastDate":"2022-08-21","source":"FIRMS / VIIRS_SNPP archive"}},{"type":"Feature","geometry":{"type":"Polygon","coordinates":[[[-7.203805272873859,42.19354571428572],[-7.204569766340502,42.19784793512209],[-7.2068111477740695,42.20185696671822],[-7.210376670733919,42.205299600196064],[-7.215023350722643,42.20794122577333],[-7.220434524178011,42.20960182103243],[-7.226241428571428,42.21016821915071],[-7.232048332964845,42.20960182103243],[-7.237459506420213,42.20794122577333],[-7.242106186408937,42.205299600196064],[-7.245671709368787,42.20185696671822],[-7.247913090802354,42.19784793512209],[-7.248677584268997,42.19354571428572],[-7.247913090802354,42.18924349344935],[-7.245671709368787,42.18523446185322],[-7.242106186408937,42.181791828375374],[-7.237459506420213,42.179150202798105],[-7.232048332964845,42.17748960753901],[-7.226241428571428,42.17692320942073],[-7.220434524178011,42.17748960753901],[-7.215023350722643,42.179150202798105],[-7.210376670733919,42.181791828375374],[-7.2068111477740695,42.18523446185322],[-7.204569766340502,42.18924349344935],[-7.203805272873859,42.19354571428572]]]},"properties":{"id":"f-33","detections":7,"firstDate":"2022-08-22","lastDate":"2022-08-28","source":"FIRMS / VIIRS_SNPP archive"}},{"type":"Feature","geometry":{"type":"Polygon","coordinates":[[[-8.043962070570664,42.010094854368916],[-8.045206795746784,42.01711989629277],[-8.048856145311397,42.023666193218936],[-8.054661422122509,42.02928762583018],[-8.062227006159116,42.03360110278389],[-8.071037315371843,42.03631266775403],[-8.080491941747567,42.037237532068964],[-8.089946568123292,42.03631266775403],[-8.098756877336019,42.03360110278389],[-8.106322461372626,42.02928762583018],[-8.112127738183737,42.023666193218936],[-8.11577708774835,42.01711989629277],[-8.11702181292447,42.010094854368916],[-8.11577708774835,42.00306981244506],[-8.112127738183737,41.996523515518895],[-8.106322461372626,41.99090208290765],[-8.098756877336019,41.98658860595394],[-8.089946568123292,41.9838770409838],[-8.080491941747567,41.98295217666887],[-8.071037315371843,41.9838770409838],[-8.062227006159116,41.98658860595394],[-8.054661422122509,41.99090208290765],[-8.048856145311397,41.996523515518895],[-8.045206795746784,42.00306981244506],[-8.043962070570664,42.010094854368916]]]},"properties":{"id":"f-34","detections":103,"firstDate":"2022-08-25","lastDate":"2024-09-05","source":"FIRMS / VIIRS_SNPP archive"}},{"type":"Feature","geometry":{"type":"Polygon","coordinates":[[[-7.160647645825841,42.208121],[-7.161476512169552,42.21278440621806],[-7.163906625329125,42.217130009009004],[-7.1677723771086885,42.22086166272408],[-7.172810322912921,42.223725061329446],[-7.178677135060864,42.22552506894215],[-7.184973000000001,42.22613901801802],[-7.191268864939138,42.22552506894215],[-7.197135677087081,42.223725061329446],[-7.202173622891314,42.22086166272408],[-7.206039374670877,42.217130009009004],[-7.208469487830451,42.21278440621806],[-7.2092983541741615,42.208121],[-7.208469487830451,42.203457593781934],[-7.206039374670877,42.19911199099099],[-7.202173622891314,42.195380337275914],[-7.197135677087081,42.19251693867055],[-7.191268864939138,42.19071693105785],[-7.184973000000001,42.19010298198198],[-7.178677135060864,42.19071693105785],[-7.172810322912921,42.19251693867055],[-7.1677723771086885,42.195380337275914],[-7.163906625329125,42.19911199099099],[-7.161476512169552,42.203457593781934],[-7.160647645825841,42.208121]]]},"properties":{"id":"f-35","detections":10,"firstDate":"2022-08-28","lastDate":"2022-08-28","source":"FIRMS / VIIRS_SNPP archive"}},{"type":"Feature","geometry":{"type":"Polygon","coordinates":[[[-7.5170897631194356,41.833580000000005],[-7.517698335933423,41.837024208222054],[-7.519482581143824,41.84023369934559],[-7.522320905388154,41.84298975185448],[-7.5260198815597175,41.845104545324844],[-7.530327430545267,41.84643396007653],[-7.534949999999999,41.84688739869117],[-7.539572569454732,41.84643396007653],[-7.543880118440281,41.845104545324844],[-7.547579094611844,41.84298975185448],[-7.550417418856175,41.84023369934559],[-7.552201664066576,41.837024208222054],[-7.552810236880563,41.833580000000005],[-7.552201664066576,41.830135791777955],[-7.550417418856175,41.82692630065442],[-7.547579094611844,41.82417024814553],[-7.543880118440281,41.822055454675166],[-7.539572569454732,41.82072603992348],[-7.534949999999999,41.82027260130884],[-7.530327430545267,41.82072603992348],[-7.5260198815597175,41.822055454675166],[-7.522320905388155,41.82417024814553],[-7.519482581143824,41.82692630065442],[-7.517698335933423,41.830135791777955],[-7.5170897631194356,41.833580000000005]]]},"properties":{"id":"f-36","detections":3,"firstDate":"2022-08-30","lastDate":"2022-08-30","source":"FIRMS / VIIRS_SNPP archive"}},{"type":"Feature","geometry":{"type":"Polygon","coordinates":[[[-8.086375940553364,42.35598714285715],[-8.087142407042412,42.360289363693525],[-8.089389573084976,42.36429839528965],[-8.09296429802887,42.3677410287675],[-8.097622970276682,42.370382654344766],[-8.103048109013542,42.37204324960386],[-8.10887,42.37260964772214],[-8.114691890986457,42.37204324960386],[-8.120117029723318,42.370382654344766],[-8.12477570197113,42.3677410287675],[-8.128350426915024,42.36429839528965],[-8.130597592957587,42.360289363693525],[-8.131364059446636,42.35598714285715],[-8.130597592957587,42.35168492202078],[-8.128350426915024,42.347675890424654],[-8.12477570197113,42.34423325694681],[-8.120117029723318,42.34159163136954],[-8.114691890986457,42.33993103611044],[-8.10887,42.33936463799216],[-8.103048109013542,42.33993103611044],[-8.097622970276682,42.34159163136954],[-8.09296429802887,42.34423325694681],[-8.089389573084976,42.347675890424654],[-8.087142407042412,42.35168492202078],[-8.086375940553364,42.35598714285715]]]},"properties":{"id":"f-37","detections":7,"firstDate":"2022-08-30","lastDate":"2022-08-30","source":"FIRMS / VIIRS_SNPP archive"}},{"type":"Feature","geometry":{"type":"Polygon","coordinates":[[[-8.185441864376598,41.861866666666664],[-8.18605070633372,41.86531087488871],[-8.187835740631868,41.86852036601225],[-8.190675320133531,41.87127641852114],[-8.194375932188299,41.8733912119915],[-8.19868538620019,41.87472062674319],[-8.20331,41.87517406535783],[-8.20793461379981,41.87472062674319],[-8.212244067811701,41.8733912119915],[-8.21594467986647,41.87127641852114],[-8.218784259368132,41.86852036601225],[-8.22056929366628,41.86531087488871],[-8.221178135623402,41.861866666666664],[-8.22056929366628,41.858422458444615],[-8.218784259368132,41.85521296732108],[-8.21594467986647,41.85245691481219],[-8.212244067811701,41.850342121341825],[-8.20793461379981,41.84901270659014],[-8.20331,41.848559267975496],[-8.19868538620019,41.84901270659014],[-8.194375932188299,41.850342121341825],[-8.190675320133531,41.85245691481219],[-8.187835740631868,41.85521296732108],[-8.18605070633372,41.858422458444615],[-8.185441864376598,41.861866666666664]]]},"properties":{"id":"f-38","detections":3,"firstDate":"2023-08-07","lastDate":"2023-08-23","source":"FIRMS / VIIRS_SNPP archive"}},{"type":"Feature","geometry":{"type":"Polygon","coordinates":[[[-7.159502989570786,42.4070475],[-7.1601690377996805,42.410783028262635],[-7.162121792400261,42.41426398644742],[-7.165228176373579,42.41725315300663],[-7.169276494785393,42.41954682117907],[-7.173990861426102,42.42098868126926],[-7.17905,42.42148047289484],[-7.184109138573898,42.42098868126926],[-7.188823505214607,42.41954682117907],[-7.1928718236264215,42.41725315300663],[-7.195978207599739,42.41426398644742],[-7.19793096220032,42.410783028262635],[-7.198597010429214,42.4070475],[-7.19793096220032,42.40331197173736],[-7.195978207599739,42.39983101355257],[-7.1928718236264215,42.39684184699337],[-7.188823505214607,42.394548178820926],[-7.184109138573898,42.39310631873074],[-7.17905,42.39261452710515],[-7.173990861426102,42.39310631873074],[-7.169276494785393,42.394548178820926],[-7.165228176373579,42.39684184699337],[-7.162121792400261,42.39983101355257],[-7.1601690377996805,42.40331197173736],[-7.159502989570786,42.4070475]]]},"properties":{"id":"f-39","detections":4,"firstDate":"2023-08-08","lastDate":"2023-08-08","source":"FIRMS / VIIRS_SNPP archive"}},{"type":"Feature","geometry":{"type":"Polygon","coordinates":[[[-7.333512271139917,41.955616666666664],[-7.3341220078815486,41.95906087488871],[-7.3359096655551355,41.96227036601225],[-7.338753418244468,41.96502641852114],[-7.342459468903292,41.9671412119915],[-7.346775256303746,41.96847062674319],[-7.351406666666667,41.96892406535783],[-7.356038077029587,41.96847062674319],[-7.360353864430041,41.9671412119915],[-7.364059915088865,41.96502641852114],[-7.366903667778198,41.96227036601225],[-7.368691325451785,41.95906087488871],[-7.369301062193416,41.955616666666664],[-7.368691325451785,41.952172458444615],[-7.366903667778198,41.94896296732108],[-7.364059915088865,41.94620691481219],[-7.360353864430041,41.944092121341825],[-7.356038077029587,41.94276270659014],[-7.351406666666667,41.942309267975496],[-7.346775256303746,41.94276270659014],[-7.342459468903292,41.944092121341825],[-7.338753418244468,41.94620691481219],[-7.3359096655551355,41.94896296732108],[-7.3341220078815486,41.952172458444615],[-7.333512271139917,41.955616666666664]]]},"properties":{"id":"f-40","detections":3,"firstDate":"2023-08-24","lastDate":"2023-08-24","source":"FIRMS / VIIRS_SNPP archive"}},{"type":"Feature","geometry":{"type":"Polygon","coordinates":[[[-6.993764285314785,41.99197222222222],[-6.994571432191822,41.996528935557286],[-6.996937867097139,42.00077511640889],[-7.000702321402654,42.004421394569135],[-7.005608253768504,42.007219282207174],[-7.011321333011391,42.0089781079042],[-7.017452222222222,42.009578010595554],[-7.023583111433054,42.0089781079042],[-7.029296190675941,42.007219282207174],[-7.034202123041791,42.004421394569135],[-7.037966577347306,42.00077511640889],[-7.040333012252622,41.996528935557286],[-7.04114015912966,41.99197222222222],[-7.040333012252622,41.98741550888716],[-7.037966577347306,41.98316932803556],[-7.034202123041791,41.97952304987531],[-7.029296190675941,41.97672516223727],[-7.023583111433054,41.97496633654025],[-7.017452222222222,41.97436643384889],[-7.011321333011391,41.97496633654025],[-7.005608253768504,41.97672516223727],[-7.000702321402654,41.97952304987531],[-6.996937867097139,41.98316932803556],[-6.994571432191822,41.98741550888716],[-6.993764285314785,41.99197222222222]]]},"properties":{"id":"f-41","detections":9,"firstDate":"2023-08-30","lastDate":"2023-08-30","source":"FIRMS / VIIRS_SNPP archive"}},{"type":"Feature","geometry":{"type":"Polygon","coordinates":[[[-7.953944421184318,42.08996333333334],[-7.954555447631911,42.093407541555386],[-7.956346886532055,42.09661703267892],[-7.959196654284197,42.099373085187814],[-7.962910543925493,42.101487878658176],[-7.967235460014382,42.10281729340986],[-7.971876666666667,42.103270732024505],[-7.976517873318952,42.10281729340986],[-7.98084278940784,42.101487878658176],[-7.9845566790491365,42.099373085187814],[-7.987406446801279,42.09661703267892],[-7.989197885701422,42.093407541555386],[-7.989808912149015,42.08996333333334],[-7.989197885701422,42.08651912511129],[-7.987406446801279,42.08330963398775],[-7.9845566790491365,42.08055358147886],[-7.98084278940784,42.0784387880085],[-7.976517873318952,42.07710937325681],[-7.971876666666667,42.07665593464217],[-7.967235460014382,42.07710937325681],[-7.962910543925493,42.0784387880085],[-7.959196654284197,42.08055358147886],[-7.956346886532055,42.08330963398775],[-7.954555447631911,42.08651912511129],[-7.953944421184318,42.08996333333334]]]},"properties":{"id":"f-42","detections":3,"firstDate":"2024-08-05","lastDate":"2024-08-05","source":"FIRMS / VIIRS_SNPP archive"}},{"type":"Feature","geometry":{"type":"Polygon","coordinates":[[[-8.461663414611822,41.942922499999995],[-8.462324592788041,41.94665802826263],[-8.464263069116637,41.95013898644742],[-8.467346739639297,41.953128153006624],[-8.471365457305911,41.955421821179065],[-8.476045353148745,41.956863681269255],[-8.4810675,41.95735547289484],[-8.486089646851255,41.956863681269255],[-8.490769542694089,41.955421821179065],[-8.494788260360703,41.953128153006624],[-8.497871930883363,41.95013898644742],[-8.499810407211958,41.94665802826263],[-8.500471585388178,41.942922499999995],[-8.499810407211958,41.93918697173736],[-8.497871930883363,41.93570601355257],[-8.494788260360703,41.932716846993365],[-8.490769542694089,41.930423178820924],[-8.486089646851255,41.928981318730735],[-8.4810675,41.92848952710515],[-8.476045353148745,41.928981318730735],[-8.471365457305911,41.930423178820924],[-8.467346739639297,41.932716846993365],[-8.464263069116637,41.93570601355257],[-8.462324592788041,41.93918697173736],[-8.461663414611822,41.942922499999995]]]},"properties":{"id":"f-43","detections":4,"firstDate":"2024-08-11","lastDate":"2024-09-17","source":"FIRMS / VIIRS_SNPP archive"}},{"type":"Feature","geometry":{"type":"Polygon","coordinates":[[[-8.362180632155646,41.939018888888896],[-8.362987108447008,41.94357560222396],[-8.365351577294607,41.94782178307556],[-8.369112904053948,41.95146806123581],[-8.374014760522268,41.95426594887385],[-8.379723093281951,41.95602477457087],[-8.38584888888889,41.956624677262226],[-8.39197468449583,41.95602477457087],[-8.397683017255513,41.95426594887385],[-8.402584873723834,41.95146806123581],[-8.406346200483174,41.94782178307556],[-8.408710669330773,41.94357560222396],[-8.409517145622136,41.939018888888896],[-8.408710669330773,41.93446217555383],[-8.406346200483174,41.93021599470223],[-8.402584873723834,41.926569716541984],[-8.397683017255513,41.923771828903945],[-8.39197468449583,41.92201300320692],[-8.38584888888889,41.921413100515565],[-8.379723093281951,41.92201300320692],[-8.374014760522268,41.923771828903945],[-8.369112904053948,41.926569716541984],[-8.365351577294607,41.93021599470223],[-8.362987108447008,41.93446217555383],[-8.362180632155646,41.939018888888896]]]},"properties":{"id":"f-44","detections":9,"firstDate":"2024-08-16","lastDate":"2024-08-17","source":"FIRMS / VIIRS_SNPP archive"}},{"type":"Feature","geometry":{"type":"Polygon","coordinates":[[[-8.334750074511689,41.832079],[-8.335574053641443,41.836742406218065],[-8.3379898382147,41.841088009009006],[-8.341832796505066,41.844819662724085],[-8.346841037255844,41.84768306132945],[-8.352673257136374,41.84948306894215],[-8.358932,41.85009701801802],[-8.365190742863625,41.84948306894215],[-8.371022962744155,41.84768306132945],[-8.376031203494932,41.844819662724085],[-8.379874161785299,41.841088009009006],[-8.382289946358556,41.836742406218065],[-8.38311392548831,41.832079],[-8.382289946358556,41.827415593781936],[-8.379874161785299,41.823069990990994],[-8.376031203494932,41.819338337275916],[-8.371022962744155,41.81647493867055],[-8.365190742863625,41.81467493105785],[-8.358932,41.81406098198198],[-8.352673257136374,41.81467493105785],[-8.346841037255844,41.81647493867055],[-8.341832796505066,41.819338337275916],[-8.3379898382147,41.823069990990994],[-8.335574053641443,41.827415593781936],[-8.334750074511689,41.832079]]]},"properties":{"id":"f-45","detections":10,"firstDate":"2024-08-17","lastDate":"2024-09-23","source":"FIRMS / VIIRS_SNPP archive"}},{"type":"Feature","geometry":{"type":"Polygon","coordinates":[[[-7.173753970934035,42.02308],[-7.174415982008377,42.02681552826264],[-7.17635690027071,42.030296486447426],[-7.179444455348976,42.03328565300663],[-7.183468235467017,42.03557932117907],[-7.1881540266594,42.03702118126926],[-7.1931825,42.037512972894845],[-7.1982109733406,42.03702118126926],[-7.202896764532983,42.03557932117907],[-7.206920544651024,42.03328565300663],[-7.21000809972929,42.030296486447426],[-7.211949017991623,42.02681552826264],[-7.212611029065965,42.02308],[-7.211949017991623,42.01934447173736],[-7.21000809972929,42.015863513552574],[-7.206920544651024,42.01287434699337],[-7.202896764532983,42.01058067882093],[-7.1982109733406,42.00913881873074],[-7.1931825,42.008647027105155],[-7.1881540266594,42.00913881873074],[-7.183468235467017,42.01058067882093],[-7.179444455348976,42.01287434699337],[-7.17635690027071,42.015863513552574],[-7.174415982008377,42.01934447173736],[-7.173753970934035,42.02308]]]},"properties":{"id":"f-46","detections":4,"firstDate":"2024-08-24","lastDate":"2024-08-24","source":"FIRMS / VIIRS_SNPP archive"}},{"type":"Feature","geometry":{"type":"Polygon","coordinates":[[[-8.259681322454627,42.19497333333333],[-8.260293363133506,42.19841754155538],[-8.262087775609322,42.201627032678914],[-8.264942273637255,42.20438308518781],[-8.268662327893981,42.20649787865817],[-8.272994422829587,42.207827293409856],[-8.277643333333335,42.2082807320245],[-8.282292243837084,42.207827293409856],[-8.28662433877269,42.20649787865817],[-8.290344393029416,42.20438308518781],[-8.293198891057349,42.201627032678914],[-8.294993303533165,42.19841754155538],[-8.295605344212044,42.19497333333333],[-8.294993303533165,42.19152912511128],[-8.293198891057349,42.188319633987746],[-8.290344393029416,42.18556358147885],[-8.28662433877269,42.18344878800849],[-8.282292243837084,42.1821193732568],[-8.277643333333335,42.18166593464216],[-8.272994422829587,42.1821193732568],[-8.268662327893981,42.18344878800849],[-8.264942273637255,42.18556358147885],[-8.262087775609322,42.188319633987746],[-8.260293363133506,42.19152912511128],[-8.259681322454627,42.19497333333333]]]},"properties":{"id":"f-47","detections":3,"firstDate":"2024-08-29","lastDate":"2024-08-29","source":"FIRMS / VIIRS_SNPP archive"}},{"type":"Feature","geometry":{"type":"Polygon","coordinates":[[[-8.27249934787767,41.858943333333336],[-8.273108162001835,41.862387541555385],[-8.27489311469788,41.86559703267892],[-8.277732564389344,41.86835308518781],[-8.281433007272168,41.870467878658175],[-8.285742264279156,41.87179729340986],[-8.290366666666666,41.872250732024504],[-8.294991069054175,41.87179729340986],[-8.299300326061163,41.870467878658175],[-8.303000768943987,41.86835308518781],[-8.305840218635451,41.86559703267892],[-8.307625171331496,41.862387541555385],[-8.308233985455661,41.858943333333336],[-8.307625171331496,41.85549912511129],[-8.305840218635451,41.85228963398775],[-8.303000768943987,41.84953358147886],[-8.299300326061163,41.8474187880085],[-8.294991069054175,41.84608937325681],[-8.290366666666666,41.84563593464217],[-8.285742264279156,41.84608937325681],[-8.281433007272168,41.8474187880085],[-8.277732564389344,41.84953358147886],[-8.27489311469788,41.85228963398775],[-8.273108162001835,41.85549912511129],[-8.27249934787767,41.858943333333336]]]},"properties":{"id":"f-48","detections":3,"firstDate":"2024-09-04","lastDate":"2024-09-04","source":"FIRMS / VIIRS_SNPP archive"}},{"type":"Feature","geometry":{"type":"Polygon","coordinates":[[[-8.073660373441326,42.033453333333334],[-8.074270856328942,42.03689754155538],[-8.07606070159187,42.04010703267892],[-8.078907934233301,42.04286308518781],[-8.082618520053996,42.04497787865817],[-8.086939588762307,42.04630729340986],[-8.091576666666667,42.0467607320245],[-8.096213744571026,42.04630729340986],[-8.100534813279337,42.04497787865817],[-8.104245399100032,42.04286308518781],[-8.107092631741462,42.04010703267892],[-8.108882477004391,42.03689754155538],[-8.109492959892007,42.033453333333334],[-8.108882477004391,42.030009125111285],[-8.107092631741462,42.02679963398775],[-8.104245399100032,42.02404358147886],[-8.100534813279337,42.021928788008495],[-8.096213744571026,42.02059937325681],[-8.091576666666667,42.020145934642166],[-8.086939588762307,42.02059937325681],[-8.082618520053996,42.021928788008495],[-8.078907934233301,42.02404358147886],[-8.07606070159187,42.02679963398775],[-8.074270856328942,42.030009125111285],[-8.073660373441326,42.033453333333334]]]},"properties":{"id":"f-49","detections":3,"firstDate":"2024-09-04","lastDate":"2024-09-04","source":"FIRMS / VIIRS_SNPP archive"}},{"type":"Feature","geometry":{"type":"Polygon","coordinates":[[[-8.083573255271826,41.988777500000005],[-8.084359235538638,41.993214940839444],[-8.086663613082791,41.997349977418885],[-8.09032934838281,42.00090081382893],[-8.095106627635914,42.00362546643625],[-8.100669887155831,42.00533825466836],[-8.106640000000002,42.00592245483777],[-8.112610112844173,42.00533825466836],[-8.11817337236409,42.00362546643625],[-8.122950651617195,42.00090081382893],[-8.126616386917213,41.997349977418885],[-8.128920764461366,41.993214940839444],[-8.129706744728178,41.988777500000005],[-8.128920764461366,41.984340059160566],[-8.126616386917213,41.980205022581124],[-8.122950651617195,41.97665418617108],[-8.11817337236409,41.97392953356376],[-8.112610112844173,41.97221674533165],[-8.106640000000002,41.97163254516224],[-8.100669887155831,41.97221674533165],[-8.095106627635914,41.97392953356376],[-8.09032934838281,41.97665418617108],[-8.086663613082791,41.980205022581124],[-8.084359235538638,41.984340059160566],[-8.083573255271826,41.988777500000005]]]},"properties":{"id":"f-50","detections":8,"firstDate":"2024-09-05","lastDate":"2024-09-16","source":"FIRMS / VIIRS_SNPP archive"}},{"type":"Feature","geometry":{"type":"Polygon","coordinates":[[[-8.17694864198881,42.2221906122449],[-8.17806379688922,42.22846335080861],[-8.18133326562686,42.23430861260539],[-8.186534239310319,42.23932805270355],[-8.19331228017808,42.24317960455541],[-8.20120547594625,42.24560079126726],[-8.20967591836735,42.24642661296588],[-8.218146360788449,42.24560079126726],[-8.226039556556618,42.24317960455541],[-8.23281759742438,42.23932805270355],[-8.238018571107839,42.23430861260539],[-8.241288039845479,42.22846335080861],[-8.242403194745888,42.2221906122449],[-8.241288039845479,42.21591787368119],[-8.238018571107839,42.210072611884414],[-8.23281759742438,42.205053171786254],[-8.226039556556618,42.201201619934395],[-8.218146360788449,42.198780433222545],[-8.20967591836735,42.197954611523926],[-8.20120547594625,42.198780433222545],[-8.19331228017808,42.201201619934395],[-8.186534239310319,42.205053171786254],[-8.18133326562686,42.210072611884414],[-8.17806379688922,42.21591787368119],[-8.17694864198881,42.2221906122449]]]},"properties":{"id":"f-51","detections":49,"firstDate":"2024-09-05","lastDate":"2024-09-05","source":"FIRMS / VIIRS_SNPP archive"}},{"type":"Feature","geometry":{"type":"Polygon","coordinates":[[[-7.911784393421806,41.895725],[-7.912569227496454,41.90016244083944],[-7.9148702445752095,41.90429747741888],[-7.918530634146767,41.90784831382892],[-7.923300946710904,41.91057296643624],[-7.928856093349688,41.91228575466835],[-7.9348175,41.91286995483777],[-7.940778906650313,41.91228575466835],[-7.946334053289097,41.91057296643624],[-7.951104365853234,41.90784831382892],[-7.954764755424791,41.90429747741888],[-7.9570657725035465,41.90016244083944],[-7.957850606578194,41.895725],[-7.9570657725035465,41.89128755916056],[-7.954764755424791,41.88715252258112],[-7.951104365853234,41.883601686171076],[-7.946334053289097,41.880877033563756],[-7.940778906650313,41.879164245331644],[-7.9348175,41.87858004516223],[-7.928856093349688,41.879164245331644],[-7.923300946710904,41.880877033563756],[-7.918530634146767,41.883601686171076],[-7.9148702445752095,41.88715252258112],[-7.912569227496454,41.89128755916056],[-7.911784393421806,41.895725]]]},"properties":{"id":"f-52","detections":8,"firstDate":"2024-09-06","lastDate":"2024-09-14","source":"FIRMS / VIIRS_SNPP archive"}},{"type":"Feature","geometry":{"type":"Polygon","coordinates":[[[-7.396238917953528,42.08331249999999],[-7.39702606823609,42.08774994083943],[-7.399333876092847,42.09188497741887],[-7.4030050682321935,42.095435813828914],[-7.407789458976764,42.098160466436234],[-7.413361000003897,42.099873254668346],[-7.419340000000001,42.10045745483776],[-7.4253189999961045,42.099873254668346],[-7.4308905410232375,42.098160466436234],[-7.435674931767808,42.095435813828914],[-7.439346123907155,42.09188497741887],[-7.441653931763912,42.08774994083943],[-7.442441082046474,42.08331249999999],[-7.441653931763912,42.07887505916055],[-7.439346123907155,42.07474002258111],[-7.435674931767808,42.07118918617107],[-7.4308905410232375,42.06846453356375],[-7.4253189999961045,42.066751745331636],[-7.419340000000001,42.06616754516222],[-7.413361000003897,42.066751745331636],[-7.407789458976764,42.06846453356375],[-7.4030050682321935,42.07118918617107],[-7.399333876092847,42.07474002258111],[-7.39702606823609,42.07887505916055],[-7.396238917953528,42.08331249999999]]]},"properties":{"id":"f-53","detections":8,"firstDate":"2024-09-16","lastDate":"2024-09-16","source":"FIRMS / VIIRS_SNPP archive"}},{"type":"Feature","geometry":{"type":"Polygon","coordinates":[[[-8.287501955366176,42.153082],[-8.288205452277472,42.15704349364126],[-8.29026800085944,42.16073501803755],[-8.293549041834742,42.16390500190179],[-8.297824977683087,42.166337416072274],[-8.302804410442729,42.167866495543045],[-8.308148,42.1683880360751],[-8.31349158955727,42.167866495543045],[-8.318471022316912,42.166337416072274],[-8.322746958165256,42.16390500190179],[-8.326027999140559,42.16073501803755],[-8.328090547722526,42.15704349364126],[-8.328794044633822,42.153082],[-8.328090547722526,42.149120506358734],[-8.326027999140559,42.145428981962446],[-8.322746958165256,42.14225899809821],[-8.318471022316912,42.13982658392772],[-8.31349158955727,42.13829750445695],[-8.308148,42.137775963924895],[-8.302804410442729,42.13829750445695],[-8.297824977683087,42.13982658392772],[-8.293549041834742,42.14225899809821],[-8.29026800085944,42.145428981962446],[-8.288205452277472,42.149120506358734],[-8.287501955366176,42.153082]]]},"properties":{"id":"f-54","detections":5,"firstDate":"2024-09-16","lastDate":"2024-09-16","source":"FIRMS / VIIRS_SNPP archive"}},{"type":"Feature","geometry":{"type":"Polygon","coordinates":[[[-7.139643784414165,41.99767],[-7.140253923914542,42.00111420822205],[-7.142042762417026,42.00432369934558],[-7.144888393533868,42.00707975185448],[-7.148596892207083,42.00919454532484],[-7.152915530380675,42.010523960076526],[-7.1575500000000005,42.01097739869117],[-7.162184469619326,42.010523960076526],[-7.166503107792918,42.00919454532484],[-7.170211606466133,42.00707975185448],[-7.173057237582975,42.00432369934558],[-7.174846076085459,42.00111420822205],[-7.175456215585836,41.99767],[-7.174846076085459,41.99422579177795],[-7.173057237582975,41.991016300654415],[-7.170211606466133,41.98826024814552],[-7.166503107792918,41.98614545467516],[-7.162184469619326,41.98481603992347],[-7.1575500000000005,41.98436260130883],[-7.152915530380675,41.98481603992347],[-7.148596892207083,41.98614545467516],[-7.144888393533868,41.98826024814552],[-7.142042762417026,41.991016300654415],[-7.140253923914542,41.99422579177795],[-7.139643784414165,41.99767]]]},"properties":{"id":"f-55","detections":3,"firstDate":"2024-09-16","lastDate":"2024-09-16","source":"FIRMS / VIIRS_SNPP archive"}},{"type":"Feature","geometry":{"type":"Polygon","coordinates":[[[-7.620953863004721,41.80201499999999],[-7.621686098949654,41.80616112079884],[-7.623832906114883,41.810024690317036],[-7.627247983139864,41.81334241267676],[-7.631698598169026,41.815888190582],[-7.6368814491431225,41.81748853347561],[-7.642443333333333,41.818034380634074],[-7.648005217523543,41.81748853347561],[-7.653188068497639,41.815888190582],[-7.657638683526801,41.81334241267676],[-7.661053760551782,41.810024690317036],[-7.663200567717011,41.80616112079884],[-7.663932803661944,41.80201499999999],[-7.663200567717011,41.79786887920114],[-7.661053760551782,41.794005309682944],[-7.657638683526801,41.79068758732322],[-7.653188068497639,41.78814180941798],[-7.648005217523543,41.78654146652437],[-7.642443333333333,41.785995619365906],[-7.6368814491431225,41.78654146652437],[-7.631698598169026,41.78814180941798],[-7.627247983139864,41.79068758732322],[-7.623832906114883,41.794005309682944],[-7.621686098949654,41.79786887920114],[-7.620953863004721,41.80201499999999]]]},"properties":{"id":"f-56","detections":6,"firstDate":"2024-09-17","lastDate":"2024-09-17","source":"FIRMS / VIIRS_SNPP archive"}}]}